#dP2022  6  5  6  0  0.00000000      96 __u+U ITR00 EXT  IAC
## 2213  21600.00000000   900.00000000 59735 0.2500000000000
+  117   C06C07C08C09C10C11C12C13C14C16C19C20C21C22C23C24C25
+        C26C27C28C29C30C32C33C34C35C36C37C38C39C40C41C42C43
+        C44C45C46E01E02E03E04E05E07E08E09E10E11E12E13E14E15
+        E18E19E21E24E25E26E27E30E31E33E34E36G01G02G03G04G05
+        G06G07G08G09G10G11G12G13G14G15G16G17G18G19G20G21G22
+        G23G24G25G26G27G28G29G30G31G32J02J03R01R02R03R04R05
+        R07R08R09R11R12R13R14R15R17R18R19R20R21R22R24  0  0
++         8 10 16  9  8  8  8 16  9 10  8  8  8 10  7  8  7
++         9  7  7  8  9  8  8  8  7  9  8  7  9  9  8  8  7
++         8  8  7  7  9  7  8  7  8  7  8  8  8  8  7  8  8
++         8  8  8  7  8  8  8  7  8  9  9  8  8  8  7  8  7
++         7  7  8  7  8  7  9  7  8  7  7  8  7  8  7  8  8
++         8  8  9  8  8  8  8  7  8  7  9  9  7  9 10  8  9
++         7  7  7  7  9  9  8  8  9  9  8 10  9 10  7  0  0
%c M  cc GPS ccc cccc cccc cccc cccc ccccc ccccc ccccc ccccc
%c cc cc ccc ccc cccc cccc cccc cccc ccccc ccccc ccccc ccccc
%f  0.0000000  0.000000000  0.00000000000  0.000000000000000
%f  0.0000000  0.000000000  0.00000000000  0.000000000000000
%i    0    0    0    0      0      0      0      0         0
%i    0    0    0    0      0      0      0      0         0
/* IAC                                ULTRA-RAPID PREDICTION
/* S/V CLOCKS ARE ALIGNED TO GNSS TIME                      
/* G:C1WC2W R:C1PC2P E:C1XC5X C:C2IC6I J:C1CC2S             
/* PCV:IGS14_2196 OL/AL:FES2004  NONE     YN ORB:CoN CLK:CoN
*  2022 06 05 11  0  0.00000000
PC06 -14379.684670  39067.287278  -7372.488265    127.135316
PC07  -2108.955496  32561.818876 -26629.323328   -258.854405
PC08 -13581.295398  20583.935424  34171.467904    347.968734
PC09 -10729.949753  38454.176452 -13940.142044   -854.214813
PC10   5664.790762  35284.660051 -21751.801123    128.282838
PC11  14256.414314   5747.301265  23347.979684    395.740548
PC12   2510.721231  21843.473602  17203.810666   -604.210917
PC13  -5655.525835  22603.949310  35229.231103    -12.590442
PC14  20816.090487  14238.366697 -11853.810205    493.515722
PC16 -16928.725070  38594.174369  -3517.292992    137.418487
PC19 -19969.562797  -5163.799575  18837.731770    862.075809
PC20 -18926.171476 -19986.324542   4729.586819   -945.286568
PC21   6317.056729  23747.413254  13217.309600   -425.782951
PC22  -9539.698903  13242.455604  22636.070297   -965.856007
PC23  20793.273876 -12357.730072  13924.160515   -932.242051
PC24  17810.638658  11273.113507 -18302.756905   -972.166866
PC25  27744.444761  -2122.830734  -2257.745751   -726.334391
PC26   -365.998971  16386.991548 -22591.347582    727.827943
PC27   4023.771553 -25741.103319 -10002.288258    734.233793
PC28  15427.122813 -22124.987677   7163.785333     75.011438
PC29 -17826.000550   5660.245253 -20723.374327    564.256324
PC30  -9979.427343 -14905.078103 -21382.939032    499.496816
PC32  -6513.140979 -23707.673472 -13198.873258   -966.295402
PC33  20010.293852   5101.695892 -18750.473164   -967.859719
PC34  10604.474366  14003.105068  21673.165870   -387.682166
PC35 -15134.883047  22009.647193  -8152.229922    306.608567
PC36 -27746.506015   1092.755819   2797.534393   -966.478217
PC37   2174.494024 -16442.654295  22461.938586   -908.537657
PC38 -21278.094098  21548.285914  29307.361901      1.002892
PC39 -18217.468621  38040.324776   2678.345139     34.998441
PC40  -5769.468788  28025.993667 -30929.921834    274.923542
PC41   9848.463714 -12903.243734 -22645.736438   -968.547987
PC42  18492.624748  20555.812771  -3622.514567   -963.911865
PC43  17816.366632  -4772.218770  20921.384440   -919.950779
PC44  -3254.499491  25964.702817   9725.426505    682.494266
PC45 -20554.509344  12415.384982 -14196.119716    775.505361
PC46 -19120.043182 -10386.846749  17459.481270   -362.580598
PE01  27683.689859  10193.523413   2437.161506   -490.244867
PE02 -27703.039711 -10077.107345  -2604.652985    303.714733
PE03 -17035.471759  -9189.125481  22403.515558   -565.626892
PE04  14347.150624 -12987.680576 -22386.733939  -1043.363367
PE05  -9748.400856 -26385.524105   9234.231327   -175.012240
PE07  -3113.813754  27981.718282   9128.846385   -675.467560
PE08 -14093.881566  13249.557214  22407.742528   -541.304096
PE09   2893.194159 -28035.130779  -9066.333127   -542.827583
PE10  20522.909549 -20490.712335  -5942.276523   -517.668566
PE11  12634.498703 -21990.540214 -15264.126130   3450.043782
PE12  24801.709067 -15689.134713   3768.697592   4578.400878
PE13 -13263.963836  22005.121795  14702.312640    429.114812
PE14 -19691.877466  -7452.716573 -24165.529371  -1816.828534
PE15 -24806.023226  15671.248414  -3940.843357    741.300936
PE18  15570.873812  -5292.086521  18256.030218  -1365.610303
PE19  16497.512144  11918.709740 -21480.896237  -5462.314269
PE21  17977.944430  18488.291499 -14530.566522   -738.359138
PE24   4060.470166 -16356.394067  24320.882662   -653.877289
PE25 -17736.519877 -18549.151620  14753.249669   -576.482014
PE26   6969.999333  14917.602165  24594.378909  -1227.028248
PE27  -2669.246138  16791.896097 -24226.723984   -315.060874
PE30 -22257.349220   4476.748049 -18995.837741   -567.788168
PE31  21568.171328  -5235.936745  19592.323931   -497.772367
PE33  21657.977320   -121.685790  20168.601063   -455.940079
PE34 -21768.375805    323.123222 -20065.216463   -520.617781
PE36  -5993.605782 -15367.800849 -24580.647318   -383.745421
PG01   6240.403857 -17821.767973 -18829.152211    347.744007
PG02 -21394.324384  15868.816234   1159.320310   -652.923513
PG03  -3892.153085 -17582.278096 -19674.078718   -268.639641
PG04   1228.913331 -26473.610874   -714.700852   -160.259283
PG05 -11816.720507  10546.885016  21175.644617    -84.412832
PG06 -23044.552073   3645.134477 -12709.097037    331.258405
PG07 -10785.991441 -11681.168786  21725.219205    322.077511
PG08   5844.275427 -23942.463151   9383.345615    -70.895088
PG09  -7049.775596 -23911.332489   9053.747878   -331.016595
PG10  23983.378870  11426.138154  -2723.536832   -442.700089
PG11 -23395.308013  12534.582061    630.728052    -17.492602
PG12  -1397.041212  16459.909639 -21091.479229   -226.391437
PG13 -12888.531428  17145.559602  15396.131754    324.362422
PG14 -23222.888486 -12868.161380  -1823.484164   -110.809734
PG15  -2709.843247  24847.984341   8096.379544    -55.652611
PG16  16941.135744  -4754.192828  19759.958112   -506.647146
PG17 -13066.922542 -10340.011820 -20238.314924    621.281187
PG18   9633.925098  11681.213624  21819.894098    150.786453
PG19 -14889.041243  -1587.609494 -22197.428445    166.658462
PG20 -20844.905494   4352.472965  15731.835030    513.137244
PG21  14785.942883 -18878.148784  -9994.046699    161.294163
PG22  15093.343419  -1835.483631 -21348.477704    270.731980
PG23  19561.153718  16346.536395   7638.801743    -26.260404
PG24  -8820.085508  19900.390170 -15235.102830    227.325605
PG25  13466.759061  18658.712910 -13784.611948    333.593372
PG26  23591.733276   1627.388439  12310.176372    210.373170
PG27  12472.992688 -13984.124594  18446.836898    212.417812
PG28 -23023.102239  -7727.647296  -9964.936139    344.312109
PG29   4746.422560  24268.315662   9546.239863   -520.942118
PG30 -19081.349658  -4552.102916  18105.078986   -530.398429
PG31  24227.231002  -5032.750797 -10388.704341   -180.546024
PG32  14709.107651   7303.515214 -20763.047393   -143.763862
PJ02 -27735.190973  15444.165026 -23176.820627     -0.467820
PJ03 -25108.318348  33273.116480  -2218.942146     -2.636880
PR01 -13693.917803  -4467.161765  21062.568664      9.521381
PR02  -3852.167659  14514.262898  20684.125922    520.426275
PR03   7324.036985  23266.725431   7601.567292     57.889618
PR04  14082.854053  19008.618951  -9517.260410    144.946570
PR05  13162.572049   4356.818120 -21400.070276     94.084021
PR07  -7760.802581 -23305.071322  -6753.309018     36.014575
PR08 -14260.478941 -18776.234748   9767.504271    -65.526825
PR09  14813.858896  -8613.422562  18881.995389     58.861324
PR11 -19818.268343  -7746.300667  14091.792126     37.097745
PR12 -25185.299397    282.773805  -3960.979368     18.753703
PR13 -16089.147987   7863.544682 -18178.417044    -23.242340
PR14   3795.891765  11186.807775 -22591.678101     25.387973
PR15  20331.578216   7733.685525 -13296.359573     95.619024
PR17  -5511.253005  20004.640253  14810.584314    532.239833
PR18   6469.328332   8825.461109  23052.897970    119.259699
PR19  15023.147895  -5583.073881  19837.541210   -191.595290
PR20  15991.857761 -19655.941244   2727.354355    -72.005406
PR21   4621.600266 -19352.881249 -15984.481258   -306.950543
PR22  -7045.569680  -7973.252986 -23197.744413   -187.628679
PR24 -15314.313037  20293.502919  -1986.725984     97.197566
EOF
